H1 CPF  1  DLR 2021 07 21 10  7022 technosat            
H2  1704205 6203    42829 2021 07 21 00 00 00 2021 07 28 00 00 00    60 1 1  0 0 0
H9
10 0 59420  28800.000000  0      -6694069.863      -1022578.225      -1719764.665
10 0 59420  28860.000000  0      -6584567.541       -915095.663      -2150949.073
10 0 59420  28920.000000  0      -6446529.098       -804862.241      -2573057.399
10 0 59420  28980.000000  0      -6280524.032       -692588.466      -2984313.280
10 0 59420  29040.000000  0      -6087244.845       -578987.525      -3382987.839
10 0 59420  29100.000000  0      -5867503.849       -464771.169      -3767406.871
10 0 59420  29160.000000  0      -5622229.426       -350645.670      -4135957.762
10 0 59420  29220.000000  0      -5352461.788       -237307.845      -4487096.078
10 0 59420  29280.000000  0      -5059348.277       -125441.197      -4819351.814
10 0 59420  29340.000000  0      -4744138.260        -15712.159      -5131335.329
10 0 59420  29400.000000  0      -4408177.544         91233.530      -5421742.920
10 0 59420  29460.000000  0      -4052902.390        194774.285      -5689361.937
10 0 59420  29520.000000  0      -3679833.222        294315.964      -5933075.494
10 0 59420  29580.000000  0      -3290568.012        389294.991      -6151866.765
10 0 59420  29640.000000  0      -2886775.445        479181.277      -6344822.848
10 0 59420  29700.000000  0      -2470187.850        563480.924      -6511138.303
10 0 59420  29760.000000  0      -2042593.807        641738.706      -6650118.294
10 0 59420  29820.000000  0      -1605830.559        713540.353      -6761181.209
10 0 59420  29880.000000  0      -1161776.307        778514.617      -6843860.857
10 0 59420  29940.000000  0       -712342.348        836335.082      -6897808.241
10 0 59420  30000.000000  0       -259465.119        886721.725      -6922792.896
10 0 59420  30060.000000  0        194901.809        929442.216      -6918703.870
10 0 59420  30120.000000  0        648795.859        964312.955      -6885550.393
10 0 59420  30180.000000  0       1100253.802        991199.883      -6823462.083
10 0 59420  30240.000000  0       1547320.104       1010019.051      -6732688.527
10 0 59420  30300.000000  0       1988055.149       1020736.881      -6613598.471
10 0 59420  30360.000000  0       2420543.532       1023370.190      -6466678.655
10 0 59420  30420.000000  0       2842902.354       1017985.953      -6292532.068
10 0 59420  30480.000000  0       3253289.296       1004700.769      -6091875.738
10 0 59420  30540.000000  0       3649910.587        983680.055      -5865538.225
10 0 59420  30600.000000  0       4031028.948        955136.991      -5614456.624
10 0 59420  30660.000000  0       4394971.297        919331.188      -5339673.096
10 0 59420  30720.000000  0       4740136.332        876567.127      -5042330.988
10 0 59420  30780.000000  0       5065001.880        827192.342      -4723670.402
10 0 59420  30840.000000  0       5368131.890        771595.330      -4385023.351
10 0 59420  30900.000000  0       5648183.156        710203.222      -4027808.508
10 0 59420  30960.000000  0       5903911.647        643479.215      -3653525.499
10 0 59420  31020.000000  0       6134178.458        571919.806      -3263748.844
10 0 59420  31080.000000  0       6337955.361        496051.824      -2860121.511
10 0 59420  31140.000000  0       6514329.935        416429.257      -2444348.066
10 0 59420  31200.000000  0       6662510.163        333629.891      -2018187.433
10 0 59420  31260.000000  0       6781828.410        248251.787      -1583445.335
10 0 59420  31320.000000  0       6871744.822        160909.651      -1141966.507
10 0 59420  31380.000000  0       6931850.115         72231.081       -695626.667
10 0 59420  31440.000000  0       6961867.758        -17147.258       -246324.352
10 0 59420  31500.000000  0       6961655.578       -106583.529        204027.416
10 0 59420  31560.000000  0       6931206.670       -195434.722        653509.661
10 0 59420  31620.000000  0       6870649.523       -283060.638       1100205.957
10 0 59420  31680.000000  0       6780247.624       -368827.839       1542210.918
10 0 59420  31740.000000  0       6660398.324       -452113.575       1977638.790
10 0 59420  31800.000000  0       6511630.947       -532309.655       2404631.864
10 0 59420  31860.000000  0       6334604.277       -608826.259       2821368.732
10 0 59420  31920.000000  0       6130103.356       -681095.621       3226072.341
10 0 59420  31980.000000  0       5899035.705       -748575.500       3617017.757
10 0 59420  32040.000000  0       5642427.130       -810752.561       3992539.686
10 0 59420  32100.000000  0       5361416.837       -867145.662       4351039.883
10 0 59420  32160.000000  0       5057251.878       -917308.859       4690994.004
10 0 59420  32220.000000  0       4731281.277       -960834.216       5010958.133
10 0 59420  32280.000000  0       4384949.593       -997354.333       5309574.936
10 0 59420  32340.000000  0       4019790.157      -1026544.617       5585579.294
10 0 59420  32400.000000  0       3637417.968      -1048125.396       5837803.612
10 0 59420  32460.000000  0       3239522.161      -1061863.742       6065182.635
10 0 59420  32520.000000  0       2827858.241      -1067575.000       6266757.715
10 0 59420  32580.000000  0       2404240.148      -1065124.057       6441680.669
10 0 59420  32640.000000  0       1970532.043      -1054426.360       6589217.226
10 0 59420  32700.000000  0       1528639.848      -1035448.629       6708749.921
10 0 59420  32760.000000  0       1080502.670      -1008209.257       6799780.439
10 0 59420  32820.000000  0        628084.173       -972778.423       6861931.432
10 0 59420  32880.000000  0        173363.914       -929277.940       6894947.901
10 0 59420  32940.000000  0       -281671.381       -877880.810       6898698.020
10 0 59420  33000.000000  0       -735036.464       -818810.520       6873173.530
10 0 59420  33060.000000  0      -1184756.249       -752340.030       6818489.667
10 0 59420  33120.000000  0      -1628874.398       -678790.473       6734884.531
10 0 59420  33180.000000  0      -2065461.778       -598529.601       6622718.019
10 0 59420  33240.000000  0      -2492624.808       -511969.981       6482470.318
10 0 59420  33300.000000  0      -2908513.692       -419566.897       6314739.927
10 0 59420  33360.000000  0      -3311330.472       -321816.029       6120241.169
10 0 59420  33420.000000  0      -3699336.867       -219250.912       5899801.259
10 0 59420  33480.000000  0      -4070861.894       -112440.140       5654356.886
10 0 59420  33540.000000  0      -4424309.178         -1984.351       5384950.297
10 0 59420  33600.000000  0      -4758163.934        111486.951       5092724.955
10 0 59420  33660.000000  0      -5070999.609        227318.763       4778920.774
10 0 59420  33720.000000  0      -5361484.176        344834.157       4444868.923
10 0 59420  33780.000000  0      -5628385.944        463337.991       4091986.170
10 0 59420  33840.000000  0      -5870578.909        582120.735       3721768.942
10 0 59420  33900.000000  0      -6087047.704        700462.432       3335787.044
10 0 59420  33960.000000  0      -6276892.075        817636.759       2935676.977
10 0 59420  34020.000000  0      -6439330.776        932915.142       2523134.919
10 0 59420  34080.000000  0      -6573704.912       1045570.895       2099909.486
10 0 59420  34140.000000  0      -6679480.778       1154883.397       1667794.242
10 0 59420  34200.000000  0      -6756252.101       1260142.260       1228619.936
10 0 59420  34260.000000  0      -6803741.637       1360651.481        784246.577
10 0 59420  34320.000000  0      -6821802.163       1455733.535        336555.367
10 0 59420  34380.000000  0      -6810416.802       1544733.384       -112559.454
10 0 59420  34440.000000  0      -6769698.742       1627022.352       -561198.788
10 0 59420  34500.000000  0      -6699890.336       1702001.877      -1007466.857
10 0 59420  34560.000000  0      -6601361.621       1769107.121      -1449479.298
10 0 59420  34620.000000  0      -6474608.295       1827810.434      -1885371.234
10 0 59420  34680.000000  0      -6320249.065       1877624.655      -2313305.268
10 0 59420  34740.000000  0      -6139022.382       1918106.167      -2731479.335
10 0 59420  34800.000000  0      -5931782.640       1948857.706      -3138134.324
10 0 59420  34860.000000  0      -5699495.835       1969530.924      -3531561.444
10 0 59420  34920.000000  0      -5443234.765       1979828.687      -3910109.295
10 0 59420  34980.000000  0      -5164173.808       1979507.125      -4272190.643
10 0 59420  35040.000000  0      -4863583.264       1968377.410      -4616288.899
10 0 59420  35100.000000  0      -4542823.325       1946307.232      -4940964.218
10 0 59420  35160.000000  0      -4203337.716       1913222.005      -5244859.232
10 0 59420  35220.000000  0      -3846647.062       1869105.786      -5526704.398
10 0 59420  35280.000000  0      -3474341.997       1814001.906      -5785322.992
10 0 59420  35340.000000  0      -3088076.032       1748013.291      -6019635.720
10 0 59420  35400.000000  0      -2689558.209       1671302.481      -6228664.949
10 0 59420  35460.000000  0      -2280545.510       1584091.383      -6411538.497
10 0 59420  35520.000000  0      -1862835.118       1486660.722      -6567492.905
10 0 59420  35580.000000  0      -1438256.703       1379349.182      -6695876.286
10 0 59420  35640.000000  0      -1008664.604       1262552.275      -6796150.851
10 0 59420  35700.000000  0       -575929.908       1136720.925      -6867894.948
10 0 59420  35760.000000  0       -141932.581       1002359.822      -6910804.647
10 0 59420  35820.000000  0        291446.359        860025.498      -6924695.029
10 0 59420  35880.000000  0        722332.784        710324.115      -6909501.139
10 0 59420  35940.000000  0       1148867.465        553908.965      -6865278.383
99
